COMMENT,ORIGINATOR,NORAD_CAT_ID,OBJECT_NAME,OBJECT_TYPE,CLASSIFICATION_TYPE,INTLDES,EPOCH,EPOCH_MICROSECONDS,MEAN_MOTION,ECCENTRICITY,INCLINATION,RA_OF_ASC_NODE,ARG_OF_PERICENTER,MEAN_ANOMALY,EPHEMERIS_TYPE,ELEMENT_SET_NO,REV_AT_EPOCH,BSTAR,MEAN_MOTION_DOT,MEAN_MOTION_DDOT,FILE,TLE_LINE0,TLE_LINE1,TLE_LINE2,OBJECT_ID,OBJECT_NUMBER,SEMIMAJOR_AXIS,PERIOD,APOGEE,PERIGEE,DECAYED
"GENERATED VIA SPACETRACK.ORG API","18 SPCS","48894","SPACEBEE-107","PAYLOAD","U","21059R","2023-05-16 21:37:15","187872","15.31074363","0.0005951","97.5927","273.6876","27.0121","333.1428","0","999","10463","0.00086919","0.00026087","0","3909742","0 SPACEBEE-107","1 48894U 21059R   23136.90087023  .00026087  00000-0  86919-3 0  9993","2 48894  97.5927 273.6876 0005951  27.0121 333.1428 15.31074363104637","2021-059R","48894","6850.743","94.052","476.684","468.531","1"
"GENERATED VIA SPACETRACK.ORG API","18 SPCS","48894","SPACEBEE-107","PAYLOAD","U","21059R","2023-05-17 02:19:35","283360","15.31084291","0.0005943","97.5927","273.8882","26.1424","334.0116","0","999","10466","0.00088453","0.00026559","0","3909835","0 SPACEBEE-107","1 48894U 21059R   23137.09693615  .00026559  00000-0  88453-3 0  9993","2 48894  97.5927 273.8882 0005943  26.1424 334.0116 15.31084291104661","2021-059R","48894","6850.713","94.051","476.649","468.507","1"
"GENERATED VIA SPACETRACK.ORG API","18 SPCS","48894","SPACEBEE-107","PAYLOAD","U","21059R","2023-05-17 08:36:01","877184","15.31098907","0.0005939","97.5927","274.1559","24.9429","335.2097","0","999","10470","0.00085885","0.00025794","0","3910633","0 SPACEBEE-107","1 48894U 21059R   23137.35835506  .00025794  00000-0  85885-3 0  9995","2 48894  97.5927 274.1559 0005939  24.9429 335.2097 15.31098907104707","2021-059R","48894","6850.669","94.050","476.603","468.466","1"
"GENERATED VIA SPACETRACK.ORG API","18 SPCS","48894","SPACEBEE-107","PAYLOAD","U","21059R","2023-05-18 08:07:39","868032","15.31148908","0.0005896","97.5932","275.1591","21.085","339.0632","0","999","10485","0.00082019","0.00024664","0","3911085","0 SPACEBEE-107","1 48894U 21059R   23138.33865588  .00024664  00000-0  82019-3 0  9998","2 48894  97.5932 275.1591 0005896  21.0850 339.0632 15.31148908104858","2021-059R","48894","6850.520","94.047","476.424","468.346","1"
"GENERATED VIA SPACETRACK.ORG API","18 SPCS","48894","SPACEBEE-107","PAYLOAD","U","21059R","2023-05-18 08:07:39","868032","15.31148908","0.0005896","97.5932","275.1591","21.085","339.0632","0","999","10485","0.00082019","0.00024664","0","3911221","0 SPACEBEE-107","1 48894U 21059R   23138.33865588  .00024664  00000-0  82019-3 0  9998","2 48894  97.5932 275.1591 0005896  21.0850 339.0632 15.31148908104858","2021-059R","48894","6850.520","94.047","476.424","468.346","1"
"GENERATED VIA SPACETRACK.ORG API","18 SPCS","48894","SPACEBEE-107","PAYLOAD","U","21059R","2023-05-18 19:06:24","667776","15.31172093","0.0005819","97.5936","275.6271","19.3277","340.8184","0","999","10492","0.00081924","0.00024653","0","3911388","0 SPACEBEE-107","1 48894U 21059R   23138.79611884  .00024653  00000-0  81924-3 0  9998","2 48894  97.5936 275.6271 0005819  19.3277 340.8184 15.31172093104922","2021-059R","48894","6850.451","94.046","476.302","468.330","1"
"GENERATED VIA SPACETRACK.ORG API","18 SPCS","48894","SPACEBEE-107","PAYLOAD","U","21059R","2023-05-19 21:46:10","921440","15.31230839","0.0005764","97.5942","276.7644","14.9797","345.1613","0","999","10509","0.00087105","0.0002627","0","3912278","0 SPACEBEE-107","1 48894U 21059R   23139.90707085  .00026270  00000-0  87105-3 0  9995","2 48894  97.5942 276.7644 0005764  14.9797 345.1613 15.31230839105099","2021-059R","48894","6850.276","94.042","476.089","468.192","1"
"GENERATED VIA SPACETRACK.ORG API","18 SPCS","48894","SPACEBEE-107","PAYLOAD","U","21059R","2023-05-19 21:46:10","921440","15.31230839","0.0005764","97.5942","276.7644","14.9797","345.1613","0","999","10509","0.00087105","0.0002627","0","3912419","0 SPACEBEE-107","1 48894U 21059R   23139.90707085  .00026270  00000-0  87105-3 0  9995","2 48894  97.5942 276.7644 0005764  14.9797 345.1613 15.31230839105099","2021-059R","48894","6850.276","94.042","476.089","468.192","1"
"GENERATED VIA SPACETRACK.ORG API","18 SPCS","48894","SPACEBEE-107","PAYLOAD","U","21059R","2023-05-20 08:44:53","435904","15.31268865","0.0005795","97.5942","277.2331","12.8199","347.3187","0","999","10516","0.001307","0.00039574","0","3912719","0 SPACEBEE-107","1 48894U 21059R   23140.36450736  .00039574  00000-0  13070-2 0  9995","2 48894  97.5942 277.2331 0005795  12.8199 347.3187 15.31268865105163","2021-059R","48894","6850.162","94.040","475.997","468.058","1"
"GENERATED VIA SPACETRACK.ORG API","18 SPCS","48894","SPACEBEE-107","PAYLOAD","U","21059R","2023-05-20 08:44:53","435904","15.31268865","0.0005795","97.5942","277.2331","12.8199","347.3187","0","999","10516","0.001307","0.00039574","0","3913175","0 SPACEBEE-107","1 48894U 21059R   23140.36450736  .00039574  00000-0  13070-2 0  9995","2 48894  97.5942 277.2331 0005795  12.8199 347.3187 15.31268865105163","2021-059R","48894","6850.162","94.040","475.997","468.058","1"
"GENERATED VIA SPACETRACK.ORG API","18 SPCS","48894","SPACEBEE-107","PAYLOAD","U","21059R","2023-05-21 14:32:43","863072","15.31361941","0.0005748","97.5946","278.5042","7.6616","352.4712","0","999","10535","0.0010691","0.00032419","0","3913738","0 SPACEBEE-107","1 48894U 21059R   23141.60606323  .00032419  00000-0  10691-2 0  9995","2 48894  97.5946 278.5042 0005748   7.6616 352.4712 15.31361941105355","2021-059R","48894","6849.885","94.034","475.687","467.813","1"
"GENERATED VIA SPACETRACK.ORG API","18 SPCS","48894","SPACEBEE-107","PAYLOAD","U","21059R","2023-05-21 16:06:49","511232","15.31366454","0.0005744","97.5945","278.571","7.5964","352.5362","0","999","10536","0.0010747","0.00032595","0","3913857","0 SPACEBEE-107","1 48894U 21059R   23141.67140638  .00032595  00000-0  10747-2 0  9991","2 48894  97.5945 278.5710 0005744   7.5964 352.5362 15.31366454105364","2021-059R","48894","6849.871","94.034","475.671","467.802","1"
"GENERATED VIA SPACETRACK.ORG API","18 SPCS","48894","SPACEBEE-107","PAYLOAD","U","21059R","2023-05-21 16:06:49","511232","15.31366454","0.0005744","97.5945","278.571","7.5964","352.5362","0","999","10536","0.0010747","0.00032595","0","3914061","0 SPACEBEE-107","1 48894U 21059R   23141.67140638  .00032595  00000-0  10747-2 0  9991","2 48894  97.5945 278.5710 0005744   7.5964 352.5362 15.31366454105364","2021-059R","48894","6849.871","94.034","475.671","467.802","1"
"GENERATED VIA SPACETRACK.ORG API","18 SPCS","48894","SPACEBEE-107","PAYLOAD","U","21059R","2023-05-22 07:47:44","972448","15.31419759","0.0005697","97.5945","279.2403","4.8332","355.2963","0","999","10546","0.0013783","0.00041946","0","3914507","0 SPACEBEE-107","1 48894U 21059R   23142.32482607  .00041946  00000-0  13783-2 0  9992","2 48894  97.5945 279.2403 0005697   4.8332 355.2963 15.31419759105462","2021-059R","48894","6849.713","94.030","475.480","467.675","1"
"GENERATED VIA SPACETRACK.ORG API","18 SPCS","48894","SPACEBEE-107","PAYLOAD","U","21059R","2023-05-22 07:47:44","972448","15.31419759","0.0005697","97.5945","279.2403","4.8332","355.2963","0","999","10546","0.0013783","0.00041946","0","3914693","0 SPACEBEE-107","1 48894U 21059R   23142.32482607  .00041946  00000-0  13783-2 0  9992","2 48894  97.5945 279.2403 0005697   4.8332 355.2963 15.31419759105462","2021-059R","48894","6849.713","94.030","475.480","467.675","1"
"GENERATED VIA SPACETRACK.ORG API","18 SPCS","48894","SPACEBEE-107","PAYLOAD","U","21059R","2023-05-22 20:20:28","176576","15.31449937","0.0005637","97.5948","279.7755","3.4025","356.7253","0","999","10554","0.0010844","0.00032976","0","3914964","0 SPACEBEE-107","1 48894U 21059R   23142.84754834  .00032976  00000-0  10844-2 0  9991","2 48894  97.5948 279.7755 0005637   3.4025 356.7253 15.31449937105546","2021-059R","48894","6849.623","94.029","475.349","467.626","1"
"GENERATED VIA SPACETRACK.ORG API","18 SPCS","48894","SPACEBEE-107","PAYLOAD","U","21059R","2023-05-22 20:20:28","176576","15.31449937","0.0005637","97.5948","279.7755","3.4025","356.7253","0","999","10554","0.0010844","0.00032976","0","3915058","0 SPACEBEE-107","1 48894U 21059R   23142.84754834  .00032976  00000-0  10844-2 0  9991","2 48894  97.5948 279.7755 0005637   3.4025 356.7253 15.31449937105546","2021-059R","48894","6849.623","94.029","475.349","467.626","1"
"GENERATED VIA SPACETRACK.ORG API","18 SPCS","48894","SPACEBEE-107","PAYLOAD","U","21059R","2023-05-23 19:51:46","495872","15.31508634","0.0005581","97.5949","280.7793","359.6011","0.5225","0","999","10569","0.00088144","0.00026816","0","3915766","0 SPACEBEE-107","1 48894U 21059R   23143.82762148  .00026816  00000-0  88144-3 0  9992","2 48894  97.5949 280.7793 0005581 359.6011   0.5225 15.31508634105699","2021-059R","48894","6849.448","94.025","475.135","467.490","1"
"GENERATED VIA SPACETRACK.ORG API","18 SPCS","48894","SPACEBEE-107","PAYLOAD","U","21059R","2023-05-23 21:25:51","595392","15.31512728","0.0005585","97.5949","280.8462","359.1651","0.958","0","999","10570","0.00088638","0.00026971","0","3915896","0 SPACEBEE-107","1 48894U 21059R   23143.89295828  .00026971  00000-0  88638-3 0  9995","2 48894  97.5949 280.8462 0005585 359.1651   0.9580 15.31512728105701","2021-059R","48894","6849.435","94.025","475.126","467.475","1"
"GENERATED VIA SPACETRACK.ORG API","18 SPCS","48894","SPACEBEE-107","PAYLOAD","U","21059R","2023-05-24 14:40:46","892640","15.31552711","0.0005546","97.5947","281.5825","355.9755","4.144","0","999","10581","0.00092072","0.00028058","0","3916549","0 SPACEBEE-107","1 48894U 21059R   23144.61165385  .00028058  00000-0  92072-3 0  9995","2 48894  97.5947 281.5825 0005546 355.9755   4.1440 15.31552711105815","2021-059R","48894","6849.316","94.022","474.980","467.382","1"
